[{"OBJECT_NAME":"STARLINK-3783","OBJECT_ID":"2022-041X","EPOCH":"2022-08-18T22:00:00.999936","MEAN_MOTION":15.08859644,"ECCENTRICITY":0.0002159,"INCLINATION":53.2131,"RA_OF_ASC_NODE":169.5365,"ARG_OF_PERICENTER":55.0116,"MEAN_ANOMALY":138.0501,"EPHEMERIS_TYPE":0,"CLASSIFICATION_TYPE":"U","NORAD_CAT_ID":52282,"ELEMENT_SET_NO":999,"REV_AT_EPOCH":130,"BSTAR":-0.00059848,"MEAN_MOTION_DOT":-9.806e-5,"MEAN_MOTION_DDOT":0},{"OBJECT_NAME":"STARLINK-3789","OBJECT_ID":"2022-041Y","EPOCH":"2022-08-18T22:00:00.999936","MEAN_MOTION":15.08881972,"ECCENTRICITY":0.0002101,"INCLINATION":53.2183,"RA_OF_ASC_NODE":179.536,"ARG_OF_PERICENTER":60.9613,"MEAN_ANOMALY":57.0439,"EPHEMERIS_TYPE":0,"CLASSIFICATION_TYPE":"U","NORAD_CAT_ID":52283,"ELEMENT_SET_NO":999,"REV_AT_EPOCH":130,"BSTAR":-0.0027606,"MEAN_MOTION_DOT":-0.00044007,"MEAN_MOTION_DDOT":0},{"OBJECT_NAME":"STARLINK-3561","OBJECT_ID":"2022-041Z","EPOCH":"2022-08-19T06:00:00.999648","MEAN_MOTION":15.0885069,"ECCENTRICITY":0.0002114,"INCLINATION":53.2139,"RA_OF_ASC_NODE":168.0393,"ARG_OF_PERICENTER":50.3667,"MEAN_ANOMALY":194.3007,"EPHEMERIS_TYPE":0,"CLASSIFICATION_TYPE":"U","NORAD_CAT_ID":52284,"ELEMENT_SET_NO":999,"REV_AT_EPOCH":1970,"BSTAR":-0.0015505,"MEAN_MOTION_DOT":-0.00024888,"MEAN_MOTION_DDOT":0},{"OBJECT_NAME":"STARLINK-3775","OBJECT_ID":"2022-041AA","EPOCH":"2022-08-18T22:00:00.999936","MEAN_MOTION":15.08875906,"ECCENTRICITY":0.0002227,"INCLINATION":53.2196,"RA_OF_ASC_NODE":179.542,"ARG_OF_PERICENTER":57.9332,"MEAN_ANOMALY":80.0868,"EPHEMERIS_TYPE":0,"CLASSIFICATION_TYPE":"U","NORAD_CAT_ID":52285,"ELEMENT_SET_NO":999,"REV_AT_EPOCH":130,"BSTAR":-0.0028181,"MEAN_MOTION_DOT":-0.00044905,"MEAN_MOTION_DDOT":0},{"OBJECT_NAME":"STARLINK-3802","OBJECT_ID":"2022-041AB","EPOCH":"2022-08-18T22:00:00.999936","MEAN_MOTION":15.08860924,"ECCENTRICITY":0.0001418,"INCLINATION":53.2144,"RA_OF_ASC_NODE":169.5318,"ARG_OF_PERICENTER":64.8995,"MEAN_ANOMALY":208.1208,"EPHEMERIS_TYPE":0,"CLASSIFICATION_TYPE":"U","NORAD_CAT_ID":52286,"ELEMENT_SET_NO":999,"REV_AT_EPOCH":130,"BSTAR":-0.00028402,"MEAN_MOTION_DOT":-4.808e-5,"MEAN_MOTION_DDOT":0},{"OBJECT_NAME":"STARLINK-3822","OBJECT_ID":"2022-041AC","EPOCH":"2022-08-18T22:00:00.999936","MEAN_MOTION":15.0886261,"ECCENTRICITY":0.0002373,"INCLINATION":53.219,"RA_OF_ASC_NODE":179.5416,"ARG_OF_PERICENTER":59.9032,"MEAN_ANOMALY":118.1254,"EPHEMERIS_TYPE":0,"CLASSIFICATION_TYPE":"U","NORAD_CAT_ID":52287,"ELEMENT_SET_NO":999,"REV_AT_EPOCH":130,"BSTAR":-0.0018777,"MEAN_MOTION_DOT":-0.00030067,"MEAN_MOTION_DDOT":0},{"OBJECT_NAME":"STARLINK-3776","OBJECT_ID":"2022-041AD","EPOCH":"2022-08-18T22:00:00.999936","MEAN_MOTION":15.08838638,"ECCENTRICITY":0.0001933,"INCLINATION":53.2176,"RA_OF_ASC_NODE":169.5322,"ARG_OF_PERICENTER":57.2693,"MEAN_ANOMALY":235.6961,"EPHEMERIS_TYPE":0,"CLASSIFICATION_TYPE":"U","NORAD_CAT_ID":52288,"ELEMENT_SET_NO":999,"REV_AT_EPOCH":130,"BSTAR":-0.00014748,"MEAN_MOTION_DOT":-2.635e-5,"MEAN_MOTION_DDOT":0},{"OBJECT_NAME":"STARLINK-3751","OBJECT_ID":"2022-041AE","EPOCH":"2022-08-18T22:00:00.999936","MEAN_MOTION":15.08861795,"ECCENTRICITY":0.0002299,"INCLINATION":53.2144,"RA_OF_ASC_NODE":169.5364,"ARG_OF_PERICENTER":63.8116,"MEAN_ANOMALY":149.2376,"EPHEMERIS_TYPE":0,"CLASSIFICATION_TYPE":"U","NORAD_CAT_ID":52289,"ELEMENT_SET_NO":999,"REV_AT_EPOCH":130,"BSTAR":-0.0012073,"MEAN_MOTION_DOT":-0.00019463,"MEAN_MOTION_DDOT":0},{"OBJECT_NAME":"STARLINK-3772","OBJECT_ID":"2022-041AF","EPOCH":"2022-08-18T22:00:00.999936","MEAN_MOTION":15.08888116,"ECCENTRICITY":0.000164,"INCLINATION":53.2162,"RA_OF_ASC_NODE":169.5329,"ARG_OF_PERICENTER":62.9067,"MEAN_ANOMALY":284.89,"EPHEMERIS_TYPE":0,"CLASSIFICATION_TYPE":"U","NORAD_CAT_ID":52290,"ELEMENT_SET_NO":999,"REV_AT_EPOCH":130,"BSTAR":-0.0035384,"MEAN_MOTION_DOT":-0.00056236,"MEAN_MOTION_DDOT":0},{"OBJECT_NAME":"STARLINK-3773","OBJECT_ID":"2022-041AG","EPOCH":"2022-08-18T22:00:00.999936","MEAN_MOTION":15.08883556,"ECCENTRICITY":0.0002029,"INCLINATION":53.2146,"RA_OF_ASC_NODE":169.5343,"ARG_OF_PERICENTER":59.9294,"MEAN_ANOMALY":193.0894,"EPHEMERIS_TYPE":0,"CLASSIFICATION_TYPE":"U","NORAD_CAT_ID":52291,"ELEMENT_SET_NO":999,"REV_AT_EPOCH":130,"BSTAR":-0.0034973,"MEAN_MOTION_DOT":-0.00055586,"MEAN_MOTION_DDOT":0},{"OBJECT_NAME":"STARLINK-3753","OBJECT_ID":"2022-041AH","EPOCH":"2022-08-18T22:00:00.999936","MEAN_MOTION":15.08855531,"ECCENTRICITY":0.0001533,"INCLINATION":53.2165,"RA_OF_ASC_NODE":169.5252,"ARG_OF_PERICENTER":74.1082,"MEAN_ANOMALY":298.8193,"EPHEMERIS_TYPE":0,"CLASSIFICATION_TYPE":"U","NORAD_CAT_ID":52292,"ELEMENT_SET_NO":999,"REV_AT_EPOCH":130,"BSTAR":-0.00033761,"MEAN_MOTION_DOT":-5.659e-5,"MEAN_MOTION_DDOT":0},{"OBJECT_NAME":"STARLINK-3771","OBJECT_ID":"2022-041AJ","EPOCH":"2022-08-18T22:00:00.999936","MEAN_MOTION":15.08861039,"ECCENTRICITY":0.0001554,"INCLINATION":53.2161,"RA_OF_ASC_NODE":169.5341,"ARG_OF_PERICENTER":64.6781,"MEAN_ANOMALY":248.3385,"EPHEMERIS_TYPE":0,"CLASSIFICATION_TYPE":"U","NORAD_CAT_ID":52293,"ELEMENT_SET_NO":999,"REV_AT_EPOCH":130,"BSTAR":-0.0003526,"MEAN_MOTION_DOT":-5.899e-5,"MEAN_MOTION_DDOT":0},{"OBJECT_NAME":"STARLINK-3777","OBJECT_ID":"2022-041AK","EPOCH":"2022-08-19T06:00:00.999648","MEAN_MOTION":15.08770318,"ECCENTRICITY":0.0001588,"INCLINATION":53.2174,"RA_OF_ASC_NODE":168.036,"ARG_OF_PERICENTER":59.9511,"MEAN_ANOMALY":344.6414,"EPHEMERIS_TYPE":0,"CLASSIFICATION_TYPE":"U","NORAD_CAT_ID":52294,"ELEMENT_SET_NO":999,"REV_AT_EPOCH":1971,"BSTAR":0.0065281,"MEAN_MOTION_DOT":0.00104957,"MEAN_MOTION_DDOT":0},{"OBJECT_NAME":"STARLINK-3765","OBJECT_ID":"2022-041AL","EPOCH":"2022-08-18T22:00:00.999936","MEAN_MOTION":15.08877116,"ECCENTRICITY":0.0001665,"INCLINATION":53.2148,"RA_OF_ASC_NODE":169.5322,"ARG_OF_PERICENTER":56.24,"MEAN_ANOMALY":276.7724,"EPHEMERIS_TYPE":0,"CLASSIFICATION_TYPE":"U","NORAD_CAT_ID":52295,"ELEMENT_SET_NO":999,"REV_AT_EPOCH":130,"BSTAR":-0.0019541,"MEAN_MOTION_DOT":-0.00031285,"MEAN_MOTION_DDOT":0},{"OBJECT_NAME":"STARLINK-3766","OBJECT_ID":"2022-041AM","EPOCH":"2022-08-18T22:00:00.999936","MEAN_MOTION":15.08880428,"ECCENTRICITY":0.0001455,"INCLINATION":53.2176,"RA_OF_ASC_NODE":169.5246,"ARG_OF_PERICENTER":70.2019,"MEAN_ANOMALY":22.7944,"EPHEMERIS_TYPE":0,"CLASSIFICATION_TYPE":"U","NORAD_CAT_ID":52296,"ELEMENT_SET_NO":999,"REV_AT_EPOCH":130,"BSTAR":-0.002369,"MEAN_MOTION_DOT":-0.00037834,"MEAN_MOTION_DDOT":0},{"OBJECT_NAME":"STARLINK-3758","OBJECT_ID":"2022-041AN","EPOCH":"2022-08-18T22:00:00.999936","MEAN_MOTION":15.08884838,"ECCENTRICITY":0.0001713,"INCLINATION":53.2156,"RA_OF_ASC_NODE":169.5335,"ARG_OF_PERICENTER":57.7675,"MEAN_ANOMALY":295.2474,"EPHEMERIS_TYPE":0,"CLASSIFICATION_TYPE":"U","NORAD_CAT_ID":52297,"ELEMENT_SET_NO":999,"REV_AT_EPOCH":130,"BSTAR":-0.0038078,"MEAN_MOTION_DOT":-0.00060455,"MEAN_MOTION_DDOT":0}]