STARLINK-3783           
1 52282U 22041X   22230.91667824 -.00009806  00000+0 -59848-3 0  9991
2 52282  53.2131 169.5365 0002159  55.0116 138.0501 15.08859644  1308
STARLINK-3789           
1 52283U 22041Y   22230.91667824 -.00044007  00000+0 -27606-2 0  9990
2 52283  53.2183 179.5360 0002101  60.9613  57.0439 15.08881972  1305
STARLINK-3561           
1 52284U 22041Z   22231.25001157 -.00024888  00000+0 -15505-2 0  9990
2 52284  53.2139 168.0393 0002114  50.3667 194.3007 15.08850690 19704
STARLINK-3775           
1 52285U 22041AA  22230.91667824 -.00044905  00000+0 -28181-2 0  9998
2 52285  53.2196 179.5420 0002227  57.9332  80.0868 15.08875906  1303
STARLINK-3802           
1 52286U 22041AB  22230.91667824 -.00004808  00000+0 -28402-3 0  9994
2 52286  53.2144 169.5318 0001418  64.8995 208.1208 15.08860924  1300
STARLINK-3822           
1 52287U 22041AC  22230.91667824 -.00030067  00000+0 -18777-2 0  9994
2 52287  53.2190 179.5416 0002373  59.9032 118.1254 15.08862610  1305
STARLINK-3776           
1 52288U 22041AD  22230.91667824 -.00002635  00000+0 -14748-3 0  9990
2 52288  53.2176 169.5322 0001933  57.2693 235.6961 15.08838638  1303
STARLINK-3751           
1 52289U 22041AE  22230.91667824 -.00019463  00000+0 -12073-2 0  9996
2 52289  53.2144 169.5364 0002299  63.8116 149.2376 15.08861795  1304
STARLINK-3772           
1 52290U 22041AF  22230.91667824 -.00056236  00000+0 -35384-2 0  9997
2 52290  53.2162 169.5329 0001640  62.9067 284.8900 15.08888116  1306
STARLINK-3773           
1 52291U 22041AG  22230.91667824 -.00055586  00000+0 -34973-2 0  9998
2 52291  53.2146 169.5343 0002029  59.9294 193.0894 15.08883556  1301
STARLINK-3753           
1 52292U 22041AH  22230.91667824 -.00005659  00000+0 -33761-3 0  9990
2 52292  53.2165 169.5252 0001533  74.1082 298.8193 15.08855531  1303
STARLINK-3771           
1 52293U 22041AJ  22230.91667824 -.00005899  00000+0 -35260-3 0  9993
2 52293  53.2161 169.5341 0001554  64.6781 248.3385 15.08861039  1305
STARLINK-3777           
1 52294U 22041AK  22231.25001157  .00104957  00000+0  65281-2 0  9991
2 52294  53.2174 168.0360 0001588  59.9511 344.6414 15.08770318 19716
STARLINK-3765           
1 52295U 22041AL  22230.91667824 -.00031285  00000+0 -19541-2 0  9996
2 52295  53.2148 169.5322 0001665  56.2400 276.7724 15.08877116  1304
STARLINK-3766           
1 52296U 22041AM  22230.91667824 -.00037834  00000+0 -23690-2 0  9993
2 52296  53.2176 169.5246 0001455  70.2019  22.7944 15.08880428  1303
STARLINK-3758           
1 52297U 22041AN  22230.91667824 -.00060455  00000+0 -38078-2 0  9995
2 52297  53.2156 169.5335 0001713  57.7675 295.2474 15.08884838  1300
